{"fetched_at":"2026-07-12T17:32:22.539Z","source":"https://celestrak.org/NORAD/elements/gp.php?GROUP=kuiper&FORMAT=JSON","constellation":"kuiper","records":[{"OBJECT_NAME":"KUIPER-00549","OBJECT_ID":"2026-140AA","EPOCH":"2026-07-12T11:36:14.278176","CLASSIFICATION_TYPE":"U","MEAN_MOTION":15.37312837,"ECCENTRICITY":0.0007376,"INCLINATION":51.8805,"RA_OF_ASC_NODE":276.5058,"ARG_OF_PERICENTER":5.5176,"MEAN_ANOMALY":354.589,"EPHEMERIS_TYPE":0,"NORAD_CAT_ID":69616,"ELEMENT_SET_NO":999,"REV_AT_EPOCH":512,"BSTAR":0.00054271,"MEAN_MOTION_DOT":0.00019828,"MEAN_MOTION_DDOT":0},{"OBJECT_NAME":"KUIPER-00550","OBJECT_ID":"2026-140AB","EPOCH":"2026-07-12T12:00:02.000160","CLASSIFICATION_TYPE":"U","MEAN_MOTION":15.32068341,"ECCENTRICITY":0.0008117,"INCLINATION":51.8786,"RA_OF_ASC_NODE":276.8778,"ARG_OF_PERICENTER":53.1772,"MEAN_ANOMALY":178.5606,"EPHEMERIS_TYPE":0,"NORAD_CAT_ID":69617,"ELEMENT_SET_NO":999,"REV_AT_EPOCH":436,"BSTAR":-0.00010169,"MEAN_MOTION_DOT":-0.0000357,"MEAN_MOTION_DDOT":0},{"OBJECT_NAME":"KUIPER-00551","OBJECT_ID":"2026-140AC","EPOCH":"2026-07-12T10:57:27.565056","CLASSIFICATION_TYPE":"U","MEAN_MOTION":15.38393313,"ECCENTRICITY":0.0012243,"INCLINATION":51.8784,"RA_OF_ASC_NODE":276.3278,"ARG_OF_PERICENTER":261.7916,"MEAN_ANOMALY":98.1683,"EPHEMERIS_TYPE":0,"NORAD_CAT_ID":69618,"ELEMENT_SET_NO":999,"REV_AT_EPOCH":512,"BSTAR":0.00058361,"MEAN_MOTION_DOT":0.00022165,"MEAN_MOTION_DDOT":0},{"OBJECT_NAME":"KUIPER-00554","OBJECT_ID":"2026-140AD","EPOCH":"2026-07-12T06:25:05.010240","CLASSIFICATION_TYPE":"U","MEAN_MOTION":15.37928096,"ECCENTRICITY":0.0011177,"INCLINATION":51.878,"RA_OF_ASC_NODE":277.3159,"ARG_OF_PERICENTER":281.0431,"MEAN_ANOMALY":78.9299,"EPHEMERIS_TYPE":0,"NORAD_CAT_ID":69619,"ELEMENT_SET_NO":999,"REV_AT_EPOCH":509,"BSTAR":0.00027433,"MEAN_MOTION_DOT":0.00010028,"MEAN_MOTION_DDOT":0},{"OBJECT_NAME":"KUIPER-00555","OBJECT_ID":"2026-140AE","EPOCH":"2026-07-12T08:00:01.999008","CLASSIFICATION_TYPE":"U","MEAN_MOTION":15.37916666,"ECCENTRICITY":0.0011304,"INCLINATION":51.8816,"RA_OF_ASC_NODE":276.9742,"ARG_OF_PERICENTER":267.6743,"MEAN_ANOMALY":112.7047,"EPHEMERIS_TYPE":0,"NORAD_CAT_ID":69620,"ELEMENT_SET_NO":999,"REV_AT_EPOCH":457,"BSTAR":-0.000367,"MEAN_MOTION_DOT":-0.00014303,"MEAN_MOTION_DDOT":0},{"OBJECT_NAME":"KUIPER-00556","OBJECT_ID":"2026-140AF","EPOCH":"2026-07-12T12:34:41.827872","CLASSIFICATION_TYPE":"U","MEAN_MOTION":15.38286033,"ECCENTRICITY":0.0011833,"INCLINATION":51.8796,"RA_OF_ASC_NODE":276.0439,"ARG_OF_PERICENTER":257.6346,"MEAN_ANOMALY":102.3316,"EPHEMERIS_TYPE":0,"NORAD_CAT_ID":69621,"ELEMENT_SET_NO":999,"REV_AT_EPOCH":513,"BSTAR":0.00048987,"MEAN_MOTION_DOT":0.00018462,"MEAN_MOTION_DDOT":0},{"OBJECT_NAME":"KUIPER-00557","OBJECT_ID":"2026-140AG","EPOCH":"2026-07-12T12:46:42.985344","CLASSIFICATION_TYPE":"U","MEAN_MOTION":15.37543982,"ECCENTRICITY":0.000993,"INCLINATION":51.8806,"RA_OF_ASC_NODE":276.0995,"ARG_OF_PERICENTER":291.6593,"MEAN_ANOMALY":68.3336,"EPHEMERIS_TYPE":0,"NORAD_CAT_ID":69622,"ELEMENT_SET_NO":999,"REV_AT_EPOCH":513,"BSTAR":0.00032775,"MEAN_MOTION_DOT":0.00011904,"MEAN_MOTION_DDOT":0},{"OBJECT_NAME":"KUIPER-00560","OBJECT_ID":"2026-140AH","EPOCH":"2026-07-12T11:01:31.696032","CLASSIFICATION_TYPE":"U","MEAN_MOTION":15.39400467,"ECCENTRICITY":0.0011577,"INCLINATION":51.8786,"RA_OF_ASC_NODE":276.3557,"ARG_OF_PERICENTER":263.1454,"MEAN_ANOMALY":96.8217,"EPHEMERIS_TYPE":0,"NORAD_CAT_ID":69623,"ELEMENT_SET_NO":999,"REV_AT_EPOCH":512,"BSTAR":0.0157,"MEAN_MOTION_DOT":0.00673403,"MEAN_MOTION_DDOT":0},{"OBJECT_NAME":"KUIPER-00561","OBJECT_ID":"2026-140AJ","EPOCH":"2026-07-11T17:56:40.634592","CLASSIFICATION_TYPE":"U","MEAN_MOTION":15.38107852,"ECCENTRICITY":0.00092458,"INCLINATION":51.8826,"RA_OF_ASC_NODE":279.8412,"ARG_OF_PERICENTER":285.6749,"MEAN_ANOMALY":74.3218,"EPHEMERIS_TYPE":0,"NORAD_CAT_ID":69624,"ELEMENT_SET_NO":999,"REV_AT_EPOCH":501,"BSTAR":-0.015960765,"MEAN_MOTION_DOT":-0.00566727,"MEAN_MOTION_DDOT":0},{"OBJECT_NAME":"KUIPER-00564","OBJECT_ID":"2026-140AK","EPOCH":"2026-07-12T12:41:38.958432","CLASSIFICATION_TYPE":"U","MEAN_MOTION":15.37294161,"ECCENTRICITY":0.0009371,"INCLINATION":51.8805,"RA_OF_ASC_NODE":276.0739,"ARG_OF_PERICENTER":288.257,"MEAN_ANOMALY":71.7397,"EPHEMERIS_TYPE":0,"NORAD_CAT_ID":69625,"ELEMENT_SET_NO":999,"REV_AT_EPOCH":513,"BSTAR":0.00039266,"MEAN_MOTION_DOT":0.00014224,"MEAN_MOTION_DDOT":0},{"OBJECT_NAME":"KUIPER-00567","OBJECT_ID":"2026-140AL","EPOCH":"2026-07-12T10:58:10.936128","CLASSIFICATION_TYPE":"U","MEAN_MOTION":15.38204497,"ECCENTRICITY":0.0012746,"INCLINATION":51.8803,"RA_OF_ASC_NODE":276.3363,"ARG_OF_PERICENTER":268.2511,"MEAN_ANOMALY":91.7016,"EPHEMERIS_TYPE":0,"NORAD_CAT_ID":69626,"ELEMENT_SET_NO":999,"REV_AT_EPOCH":512,"BSTAR":0.00035168,"MEAN_MOTION_DOT":0.000131,"MEAN_MOTION_DDOT":0},{"OBJECT_NAME":"KUIPER-00573","OBJECT_ID":"2026-140AM","EPOCH":"2026-07-12T12:52:04.014048","CLASSIFICATION_TYPE":"U","MEAN_MOTION":15.37428829,"ECCENTRICITY":0.000928,"INCLINATION":51.8788,"RA_OF_ASC_NODE":276.1149,"ARG_OF_PERICENTER":277.3114,"MEAN_ANOMALY":82.6818,"EPHEMERIS_TYPE":0,"NORAD_CAT_ID":69627,"ELEMENT_SET_NO":999,"REV_AT_EPOCH":513,"BSTAR":0.00028649,"MEAN_MOTION_DOT":0.00010311,"MEAN_MOTION_DDOT":0},{"OBJECT_NAME":"KUIPER-00258","OBJECT_ID":"2026-151A","EPOCH":"2026-07-12T12:00:02.000160","CLASSIFICATION_TYPE":"U","MEAN_MOTION":15.3540795,"ECCENTRICITY":0.0011417,"INCLINATION":51.8672,"RA_OF_ASC_NODE":193.5529,"ARG_OF_PERICENTER":159.3884,"MEAN_ANOMALY":16.5923,"EPHEMERIS_TYPE":0,"NORAD_CAT_ID":69763,"ELEMENT_SET_NO":999,"REV_AT_EPOCH":196,"BSTAR":0.0012136,"MEAN_MOTION_DOT":0.00042319,"MEAN_MOTION_DDOT":0},{"OBJECT_NAME":"KUIPER-00526","OBJECT_ID":"2026-151B","EPOCH":"2026-07-12T12:00:02.000160","CLASSIFICATION_TYPE":"U","MEAN_MOTION":15.37267703,"ECCENTRICITY":0.0005971,"INCLINATION":51.8759,"RA_OF_ASC_NODE":193.4238,"ARG_OF_PERICENTER":129.5504,"MEAN_ANOMALY":110.3328,"EPHEMERIS_TYPE":0,"NORAD_CAT_ID":69764,"ELEMENT_SET_NO":999,"REV_AT_EPOCH":172,"BSTAR":0.001036,"MEAN_MOTION_DOT":0.00038236,"MEAN_MOTION_DDOT":0},{"OBJECT_NAME":"KUIPER-00558","OBJECT_ID":"2026-151C","EPOCH":"2026-07-12T12:00:02.000160","CLASSIFICATION_TYPE":"U","MEAN_MOTION":15.36759206,"ECCENTRICITY":0.0007504,"INCLINATION":51.8752,"RA_OF_ASC_NODE":193.4597,"ARG_OF_PERICENTER":141.337,"MEAN_ANOMALY":81.1169,"EPHEMERIS_TYPE":0,"NORAD_CAT_ID":69765,"ELEMENT_SET_NO":999,"REV_AT_EPOCH":220,"BSTAR":0.001082,"MEAN_MOTION_DOT":0.00039313,"MEAN_MOTION_DDOT":0},{"OBJECT_NAME":"KUIPER-00569","OBJECT_ID":"2026-151D","EPOCH":"2026-07-12T12:00:02.000160","CLASSIFICATION_TYPE":"U","MEAN_MOTION":15.37419946,"ECCENTRICITY":0.000503,"INCLINATION":51.8781,"RA_OF_ASC_NODE":193.4079,"ARG_OF_PERICENTER":127.1168,"MEAN_ANOMALY":119.5906,"EPHEMERIS_TYPE":0,"NORAD_CAT_ID":69766,"ELEMENT_SET_NO":999,"REV_AT_EPOCH":130,"BSTAR":0.0010307,"MEAN_MOTION_DOT":0.0003822,"MEAN_MOTION_DDOT":0}]}
