KUIPER-00549            
1 69616U 26140AA  26193.48349859  .00019828  00000+0  54271-3 0  9991
2 69616  51.8805 276.5058 0007376   5.5176 354.5890 15.37312837  5129
KUIPER-00550            
1 69617U 26140AB  26193.50002315 -.00003570  00000+0 -10169-3 0  9995
2 69617  51.8786 276.8778 0008117  53.1772 178.5606 15.32068341  4362
KUIPER-00551            
1 69618U 26140AC  26193.45656904  .00022165  00000+0  58361-3 0  9994
2 69618  51.8784 276.3278 0012243 261.7916  98.1683 15.38393313  5126
KUIPER-00554            
1 69619U 26140AD  26193.26741910  .00010028  00000+0  27433-3 0  9997
2 69619  51.8780 277.3159 0011177 281.0431  78.9299 15.37928096  5090
KUIPER-00555            
1 69620U 26140AE  26193.33335647 -.00014303  00000+0 -36700-3 0  9992
2 69620  51.8816 276.9742 0011304 267.6743 112.7047 15.37916666  4573
KUIPER-00556            
1 69621U 26140AF  26193.52409523  .00018462  00000+0  48987-3 0  9997
2 69621  51.8796 276.0439 0011833 257.6346 102.3316 15.38286033  5136
KUIPER-00557            
1 69622U 26140AG  26193.53244196  .00011904  00000+0  32775-3 0  9994
2 69622  51.8806 276.0995 0009930 291.6593  68.3336 15.37543982  5134
KUIPER-00560            
1 69623U 26140AH  26193.45939463  .00673403  00000+0  15700-1 0  9999
2 69623  51.8786 276.3557 0011577 263.1454  96.8217 15.39400467  5124
KUIPER-00561            
1 69624U 26140AJ  26192.74769253 -.00566727  00000+0 -15961-1 0  9990
2 69624  51.8826 279.8412 0009245 285.6749  74.3218 15.38107852  5014
KUIPER-00564            
1 69625U 26140AK  26193.52892313  .00014224  00000+0  39266-3 0  9996
2 69625  51.8805 276.0739 0009371 288.2570  71.7397 15.37294161  5135
KUIPER-00567            
1 69626U 26140AL  26193.45707102  .00013100  00000+0  35168-3 0  9999
2 69626  51.8803 276.3363 0012746 268.2511  91.7016 15.38204497  5126
KUIPER-00573            
1 69627U 26140AM  26193.53615757  .00010311  00000+0  28649-3 0  9990
2 69627  51.8788 276.1149 0009280 277.3114  82.6818 15.37428829  5134
KUIPER-00258            
1 69763U 26151A   26193.50002315  .00042319  00000+0  12136-2 0  9996
2 69763  51.8672 193.5529 0011417 159.3884  16.5923 15.35407950  1969
KUIPER-00526            
1 69764U 26151B   26193.50002315  .00038236  00000+0  10360-2 0  9997
2 69764  51.8759 193.4238 0005971 129.5504 110.3328 15.37267703  1726
KUIPER-00558            
1 69765U 26151C   26193.50002315  .00039313  00000+0  10820-2 0  9996
2 69765  51.8752 193.4597 0007504 141.3370  81.1169 15.36759206  2200
KUIPER-00569            
1 69766U 26151D   26193.50002315  .00038220  00000+0  10307-2 0  9993
2 69766  51.8781 193.4079 0005030 127.1168 119.5906 15.37419946  1307
